COMMENT,ORIGINATOR,NORAD_CAT_ID,OBJECT_NAME,OBJECT_TYPE,CLASSIFICATION_TYPE,INTLDES,EPOCH,EPOCH_MICROSECONDS,MEAN_MOTION,ECCENTRICITY,INCLINATION,RA_OF_ASC_NODE,ARG_OF_PERICENTER,MEAN_ANOMALY,EPHEMERIS_TYPE,ELEMENT_SET_NO,REV_AT_EPOCH,BSTAR,MEAN_MOTION_DOT,MEAN_MOTION_DDOT,FILE,TLE_LINE0,TLE_LINE1,TLE_LINE2,OBJECT_ID,OBJECT_NUMBER,SEMIMAJOR_AXIS,PERIOD,APOGEE,PERIGEE,DECAYED,date
GENERATED VIA SPACETRACK.ORG API,18 SPCS,48893,SPACEBEE-106,PAYLOAD,U,21059Q,2023/3/23 14:08,291040,15.2553024,0.0008476,97.5847,217.9626,215.2737,144.794,0,999,9631,0.001554,0.00039533,0,3868494,0 SPACEBEE-106,1 48893U 21059Q   23082.58898485  .00039533  00000-0  15540-2 0  9999,2 48893  97.5847 217.9626 0008476 215.2737 144.7940 15.25530240 96314,2021-059Q,48893,6867.331,94.393,495.016,483.375,0,
GENERATED VIA SPACETRACK.ORG API,18 SPCS,48893,SPACEBEE-106,PAYLOAD,U,21059Q,2023/3/23 20:25,934624,15.25564592,0.0008457,97.5848,218.2286,214.3725,145.6967,0,999,9635,0.0020583,0.00052531,0,3868816,0 SPACEBEE-106,1 48893U 21059Q   23082.85135341  .00052531  00000-0  20583-2 0  9990,2 48893  97.5848 218.2286 0008457 214.3725 145.6967 15.25564592 96357,2021-059Q,48893,6867.228,94.391,494.9,483.285,0,
GENERATED VIA SPACETRACK.ORG API,18 SPCS,48893,SPACEBEE-106,PAYLOAD,U,21059Q,2023/3/24 4:18,108384,15.25642249,0.0008429,97.5848,218.5611,213.1888,146.8822,0,999,9640,0.0044071,0.00113749,0,3868958,0 SPACEBEE-106,1 48893U 21059Q   23083.17930681  .00113749  00000-0  44071-2 0  9993,2 48893  97.5848 218.5611 0008429 213.1888 146.8822 15.25642249 96403,2021-059Q,48893,6866.995,94.386,494.648,483.071,0,
GENERATED VIA SPACETRACK.ORG API,18 SPCS,48893,SPACEBEE-106,PAYLOAD,U,21059Q,2023/3/24 9:01,610432,15.25681747,0.0008422,97.585,218.7603,212.324,147.7482,0,999,9643,0.0048236,0.00124838,0,3869846,0 SPACEBEE-106,1 48893U 21059Q   23083.37607188  .00124838  00000-0  48236-2 0  9996,2 48893  97.5850 218.7603 0008422 212.3240 147.7482 15.25681747 96436,2021-059Q,48893,6866.876,94.384,494.524,482.958,0,
GENERATED VIA SPACETRACK.ORG API,18 SPCS,48893,SPACEBEE-106,PAYLOAD,U,21059Q,2023/3/24 20:02,89408,15.25675154,0.0008409,97.5852,219.2257,210.5527,149.5222,0,999,9650,0.0017327,0.00044307,0,3869928,0 SPACEBEE-106,1 48893U 21059Q   23083.83518622  .00044307  00000-0  17327-2 0  9990,2 48893  97.5852 219.2257 0008409 210.5527 149.5222 15.25675154 96507,2021-059Q,48893,6866.896,94.384,494.535,482.986,0,
GENERATED VIA SPACETRACK.ORG API,18 SPCS,48893,SPACEBEE-106,PAYLOAD,U,21059Q,2023/3/24 21:37,755232,15.25681236,0.000841,97.5853,219.2922,210.3261,149.7491,0,999,9651,0.0016869,0.00043135,0,3870109,0 SPACEBEE-106,1 48893U 21059Q   23083.90077263  .00043135  00000-0  16869-2 0  9997,2 48893  97.5853 219.2922 0008410 210.3261 149.7491 15.25681236 96511,2021-059Q,48893,6866.878,94.384,494.518,482.968,0,
GENERATED VIA SPACETRACK.ORG API,18 SPCS,48893,SPACEBEE-106,PAYLOAD,U,21059Q,2023/3/25 21:13,283648,15.25766393,0.0008389,97.5853,220.29,207.4349,152.6447,0,999,9666,0.0015496,0.00039701,0,3871104,0 SPACEBEE-106,1 48893U 21059Q   23084.88454032  .00039701  00000-0  15496-2 0  9997,2 48893  97.5853 220.2900 0008389 207.4349 152.6447 15.25766393 96666,2021-059Q,48893,6866.622,94.379,494.247,482.727,0,
GENERATED VIA SPACETRACK.ORG API,18 SPCS,48893,SPACEBEE-106,PAYLOAD,U,21059Q,2023/3/26 3:31,561952,15.25785499,0.00084,97.5852,220.5561,206.6658,153.4149,0,999,9670,0.0015313,0.00039252,0,3871223,0 SPACEBEE-106,1 48893U 21059Q   23085.14686993  .00039252  00000-0  15313-2 0  9999,2 48893  97.5852 220.5561 0008400 206.6658 153.4149 15.25785499 96700,2021-059Q,48893,6866.565,94.378,494.198,482.662,0,
GENERATED VIA SPACETRACK.ORG API,18 SPCS,48893,SPACEBEE-106,PAYLOAD,U,21059Q,2023/3/26 14:32,162432,15.25817685,0.000843,97.585,221.0217,205.164,154.9188,0,999,9677,0.0014543,0.00037301,0,3871964,0 SPACEBEE-106,1 48893U 21059Q   23085.60593938  .00037301  00000-0  14543-2 0  9993,2 48893  97.5850 221.0217 0008430 205.1640 154.9188 15.25817685 96779,2021-059Q,48893,6866.468,94.376,494.122,482.545,0,
GENERATED VIA SPACETRACK.ORG API,18 SPCS,48893,SPACEBEE-106,PAYLOAD,U,21059Q,2023/3/27 7:51,923552,15.25869378,0.0008451,97.5848,221.7535,202.9335,157.1527,0,999,9688,0.0014131,0.00036294,0,3872387,0 SPACEBEE-106,1 48893U 21059Q   23086.32731393  .00036294  00000-0  14131-2 0  9995,2 48893  97.5848 221.7535 0008451 202.9335 157.1527 15.25869378 96885,2021-059Q,48893,6866.313,94.372,493.981,482.375,0,
GENERATED VIA SPACETRACK.ORG API,18 SPCS,48893,SPACEBEE-106,PAYLOAD,U,21059Q,2023/3/27 7:51,923552,15.25869378,0.0008451,97.5848,221.7535,202.9335,157.1527,0,999,9688,0.0014131,0.00036294,0,3872569,0 SPACEBEE-106,1 48893U 21059Q   23086.32731393  .00036294  00000-0  14131-2 0  9995,2 48893  97.5848 221.7535 0008451 202.9335 157.1527 15.25869378 96885,2021-059Q,48893,6866.313,94.372,493.981,482.375,0,
GENERATED VIA SPACETRACK.ORG API,18 SPCS,48893,SPACEBEE-106,PAYLOAD,U,21059Q,2023/3/27 22:01,929664,15.25913391,0.0008438,97.5849,222.3523,200.7751,159.3145,0,999,9697,0.0014014,0.00036039,0,3872915,0 SPACEBEE-106,1 48893U 21059Q   23086.91751076  .00036039  00000-0  14014-2 0  9997,2 48893  97.5849 222.3523 0008438 200.7751 159.3145 15.25913391 96978,2021-059Q,48893,6866.181,94.37,493.84,482.252,0,
GENERATED VIA SPACETRACK.ORG API,18 SPCS,48893,SPACEBEE-106,PAYLOAD,U,21059Q,2023/3/28 9:02,64640,15.25951289,0.0008427,97.5848,222.8183,199.1605,160.9317,0,999,9704,0.0014881,0.00038328,0,3873345,0 SPACEBEE-106,1 48893U 21059Q   23087.37654010  .00038328  00000-0  14881-2 0  9993,2 48893  97.5848 222.8183 0008427 199.1605 160.9317 15.25951289 97047,2021-059Q,48893,6866.067,94.367,493.718,482.146,0,
GENERATED VIA SPACETRACK.ORG API,18 SPCS,48893,SPACEBEE-106,PAYLOAD,U,21059Q,2023/3/28 9:02,64640,15.25951289,0.0008427,97.5848,222.8183,199.1605,160.9317,0,999,9704,0.0014881,0.00038328,0,3873565,0 SPACEBEE-106,1 48893U 21059Q   23087.37654010  .00038328  00000-0  14881-2 0  9993,2 48893  97.5848 222.8183 0008427 199.1605 160.9317 15.25951289 97047,2021-059Q,48893,6866.067,94.367,493.718,482.146,0,
GENERATED VIA SPACETRACK.ORG API,18 SPCS,48893,SPACEBEE-106,PAYLOAD,U,21059Q,2023/3/28 21:37,799616,15.25993857,0.0008412,97.5849,223.3507,197.3577,162.7375,0,999,9712,0.0015355,0.00039609,0,3873921,0 SPACEBEE-106,1 48893U 21059Q   23087.90113194  .00039609  00000-0  15355-2 0  9995,2 48893  97.5849 223.3507 0008412 197.3577 162.7375 15.25993857 97126,2021-059Q,48893,6865.94,94.365,493.58,482.029,0,
GENERATED VIA SPACETRACK.ORG API,18 SPCS,48893,SPACEBEE-106,PAYLOAD,U,21059Q,2023/3/29 8:38,857536,15.26033503,0.0008435,97.5845,223.8162,195.9984,164.0988,0,999,9719,0.0016458,0.00042527,0,3874492,0 SPACEBEE-106,1 48893U 21059Q   23088.36013724  .00042527  00000-0  16458-2 0  9992,2 48893  97.5845 223.8162 0008435 195.9984 164.0988 15.26033503 97191,2021-059Q,48893,6865.821,94.362,493.477,481.894,0,
GENERATED VIA SPACETRACK.ORG API,18 SPCS,48893,SPACEBEE-106,PAYLOAD,U,21059Q,2023/3/29 8:38,857536,15.26033503,0.0008435,97.5845,223.8162,195.9984,164.0988,0,999,9719,0.0016458,0.00042527,0,3874597,0 SPACEBEE-106,1 48893U 21059Q   23088.36013724  .00042527  00000-0  16458-2 0  9992,2 48893  97.5845 223.8162 0008435 195.9984 164.0988 15.26033503 97191,2021-059Q,48893,6865.821,94.362,493.477,481.894,0,
GENERATED VIA SPACETRACK.ORG API,18 SPCS,48893,SPACEBEE-106,PAYLOAD,U,21059Q,2023/3/30 14:32,13472,15.26142183,0.0008444,97.5843,225.0805,192.4997,167.6032,0,999,9738,0.0017758,0.00046064,0,3875576,0 SPACEBEE-106,1 48893U 21059Q   23089.60594923  .00046064  00000-0  17758-2 0  9999,2 48893  97.5843 225.0805 0008444 192.4997 167.6032 15.26142183 97388,2021-059Q,48893,6865.495,94.356,493.157,481.563,0,
GENERATED VIA SPACETRACK.ORG API,18 SPCS,48893,SPACEBEE-106,PAYLOAD,U,21059Q,2023/3/30 14:32,13472,15.26142183,0.0008444,97.5843,225.0805,192.4997,167.6032,0,999,9738,0.0017758,0.00046064,0,3875726,0 SPACEBEE-106,1 48893U 21059Q   23089.60594923  .00046064  00000-0  17758-2 0  9999,2 48893  97.5843 225.0805 0008444 192.4997 167.6032 15.26142183 97388,2021-059Q,48893,6865.495,94.356,493.157,481.563,0,
GENERATED VIA SPACETRACK.ORG API,18 SPCS,48893,SPACEBEE-106,PAYLOAD,U,21059Q,2023/3/31 20:26,192096,15.26256799,0.0008381,97.5847,226.3448,188.5657,171.5439,0,999,9757,0.0016805,0.00043724,0,3876495,0 SPACEBEE-106,1 48893U 21059Q   23090.85166889  .00043724  00000-0  16805-2 0  9996,2 48893  97.5847 226.3448 0008381 188.5657 171.5439 15.26256799 97573,2021-059Q,48893,6865.151,94.348,492.77,481.262,0,
GENERATED VIA SPACETRACK.ORG API,18 SPCS,48893,SPACEBEE-106,PAYLOAD,U,21059Q,2023/4/1 9:01,852480,15.2630156,0.0008389,97.5849,226.8772,186.4336,173.6796,0,999,9765,0.0016653,0.00043385,0,3877270,0 SPACEBEE-106,1 48893U 21059Q   23091.37615570  .00043385  00000-0  16653-2 0  9994,2 48893  97.5849 226.8772 0008389 186.4336 173.6796 15.26301560 97654,2021-059Q,48893,6865.017,94.346,492.641,481.123,0,
GENERATED VIA SPACETRACK.ORG API,18 SPCS,48893,SPACEBEE-106,PAYLOAD,U,21059Q,2023/4/1 20:02,86880,15.26335751,0.0008388,97.5851,227.3434,184.7655,175.3504,0,999,9772,0.0015486,0.00040364,0,3877516,0 SPACEBEE-106,1 48893U 21059Q   23091.83507045  .00040364  00000-0  15486-2 0  9999,2 48893  97.5851 227.3434 0008388 184.7655 175.3504 15.26335751 97725,2021-059Q,48893,6864.914,94.344,492.538,481.021,0,
GENERATED VIA SPACETRACK.ORG API,18 SPCS,48893,SPACEBEE-106,PAYLOAD,U,21059Q,2023/4/2 8:37,446432,15.2637905,0.0008389,97.5852,227.876,183.135,176.9837,0,999,9780,0.0016569,0.00043266,0,3877942,0 SPACEBEE-106,1 48893U 21059Q   23092.35953063  .00043266  00000-0  16569-2 0  9999,2 48893  97.5852 227.8760 0008389 183.1350 176.9837 15.26379050 97804,2021-059Q,48893,6864.785,94.341,492.408,480.891,0,
